0 FENGYUN 1C DEB
1 38493U 99025ESC 21055.44343964  .00000055  00000-0  65547-4 0  9993
2 38493  99.1008 120.2318 0436662 107.1594 257.7832 13.59815766326676
0 FENGYUN 1C DEB
1 38495U 99025ESE 21055.05692338  .00000851  00000-0  94668-3 0  9993
2 38495  99.2361 142.2218 0268727 346.2944  13.1001 13.59774793372301
0 FENGYUN 1C DEB
1 38496U 99025ESF 21054.30352118  .00000607  00000-0  39820-3 0  9998
2 38496  98.8870  88.6216 0082639 249.5441 109.6839 14.04207806563754
0 FENGYUN 1C DEB
1 38497U 99025ESG 21054.39734262  .00002136  00000-0  56280-3 0  9990
2 38497  98.6851 112.1871 0073661 219.4935 140.0876 14.48524852363716
0 FENGYUN 1C DEB
1 38498U 99025ESH 21057.76063673  .00000465  00000-0  88391-3 0  9997
2 38498  99.6956 248.6114 0568356  70.0643 296.0751 12.92833782311030
0 FENGYUN 1C DEB
1 38499U 99025ESJ 21057.69326842  .00000256  00000-0  27944-3 0  9995
2 38499  98.4193 150.0062 0247295 149.0385 212.5612 13.67440103515900
0 FENGYUN 1C DEB
1 38503U 99025ESN 21057.77938548  .00001098  00000-0  22141-3 0  9991
2 38503  99.5101  43.7932 0113775 204.1572 155.4264 14.60110463380058
0 FENGYUN 1C DEB
1 38505U 99025ESQ 21053.55991371  .00001196  00000-0  71721-3 0  9995
2 38505  98.3559 326.6635 0178614 170.9921 189.4523 14.00997507603192
0 FENGYUN 1C DEB
1 38506U 99025ESR 21058.03487707  .00001013  00000-0  58019-3 0  9990
2 38506  98.9971 342.5479 0179794 173.2186 187.1476 14.03879163526689
0 FENGYUN 1C DEB
1 38510U 99025ESV 21055.88622596  .00000115  00000-0  86923-4 0  9990
2 38510  98.7584 106.6523 0105893  83.6623 277.6594 14.08476907639786
0 FENGYUN 1C DEB
1 38512U 99025ESX 21057.01272783  .00000143  00000-0  17051-3 0  9994
2 38512  98.3942 141.7010 0242142 114.6653 247.9919 13.67762400355966
0 FENGYUN 1C DEB
1 38516U 99025ETB 21056.83749097  .00000036  00000-0  28038-4 0  9993
2 38516  98.3783  74.8898 0112595 285.8683  73.0115 14.32134053598005
0 FENGYUN 1C DEB
1 38517U 99025ETC 21057.50439792  .00001620  00000-0  39865-3 0  9996
2 38517  98.5961 160.9581 0118812  82.1951 279.2711 14.49482271363105
0 FENGYUN 1C DEB
1 38519U 99025ETE 21054.64293346  .00000518  00000-0  49444-3 0  9992
2 38519  99.4532 359.5794 0191071 345.4912  14.0799 13.77559742605381
0 FENGYUN 1C DEB
1 38714U 99025ETF 21057.92706773  .00003338  00000-0  73820-3 0  9994
2 38714  97.9091 308.7582 0212334  85.3842 277.1568 14.44778919374721
0 FENGYUN 1C DEB
1 38715U 99025ETG 21055.42977922  .00000864  00000-0  50475-3 0  9996
2 38715  98.2051 299.4072 0159982 321.7817  37.2096 14.04513219683540
0 FENGYUN 1C DEB
1 38717U 99025ETJ 21057.67811521  .00000522  00000-0  33597-3 0  9996
2 38717  99.0868  21.3540 0066293 223.5647 260.7898 14.06605907337391
0 FENGYUN 1C DEB
1 38724U 99025ETR 21054.37401719  .00001474  00000-0  10830-2 0  9993
2 38724  98.7555 117.3994 0161740 266.3372  91.9280 13.91213712321046
0 FENGYUN 1C DEB
1 38725U 99025ETS 21058.17096630  .00001214  00000-0  60007-3 0  9992
2 38725  98.8721 141.7883 0044464 287.7378  71.8947 14.18757611518728
0 FENGYUN 1C DEB
1 38726U 99025ETT 21057.90128144  .00001283  00000-0  53855-3 0  9998
2 38726  99.1800 289.7712 0084910 271.3662  87.7790 14.25906427514064
0 FENGYUN 1C DEB
1 38727U 99025ETU 21058.15797424  .00000606  00000-0  45795-3 0  9992
2 38727  98.6971 136.1203 0117083  51.5842 339.8747 13.94418629477916
0 FENGYUN 1C DEB
1 38728U 99025ETV 21057.60776799  .00000655  00000-0  17815-3 0  9990
2 38728  99.2478 197.5012 0107704 264.8006 154.6059 14.48181823401600
0 FENGYUN 1C DEB
1 38729U 99025ETW 21042.74493254  .00000901  00000-0  61190-3 0  9991
2 38729  99.2771  32.4406 0089495 121.0355 239.9634 14.00828149584850
