OBJECT_NAME,OBJECT_ID,EPOCH,MEAN_MOTION,ECCENTRICITY,INCLINATION,RA_OF_ASC_NODE,ARG_OF_PERICENTER,MEAN_ANOMALY,EPHEMERIS_TYPE,CLASSIFICATION_TYPE,NORAD_CAT_ID,ELEMENT_SET_NO,REV_AT_EPOCH,BSTAR,MEAN_MOTION_DOT,MEAN_MOTION_DDOT
FENGYUN 1C DEB,1999-025ESC,2021-02-24T10:38:33.184896,13.59815766,.0436662,99.1008,120.2318,107.1594,257.7832,0,U,38493,999,32667,.65547E-4,.55E-6,0
FENGYUN 1C DEB,1999-025ESE,2021-02-24T01:21:58.180032,13.59774793,.0268727,99.2361,142.2218,346.2944,13.1001,0,U,38495,999,37230,.94668E-3,.851E-5,0
FENGYUN 1C DEB,1999-025ESF,2021-02-23T07:17:04.229952,14.04207806,.0082639,98.8870,88.6216,249.5441,109.6839,0,U,38496,999,56375,.3982E-3,.607E-5,0
FENGYUN 1C DEB,1999-025ESG,2021-02-23T09:32:10.402368,14.48524852,.0073661,98.6851,112.1871,219.4935,140.0876,0,U,38497,999,36371,.5628E-3,.2136E-4,0
FENGYUN 1C DEB,1999-025ESH,2021-02-26T18:15:19.013472,12.92833782,.0568356,99.6956,248.6114,70.0643,296.0751,0,U,38498,999,31103,.88391E-3,.465E-5,0
FENGYUN 1C DEB,1999-025ESJ,2021-02-26T16:38:18.391488,13.67440103,.0247295,98.4193,150.0062,149.0385,212.5612,0,U,38499,999,51590,.27944E-3,.256E-5,0
FENGYUN 1C DEB,1999-025ESN,2021-02-26T18:42:18.905472,14.60110463,.0113775,99.5101,43.7932,204.1572,155.4264,0,U,38503,999,38005,.22141E-3,.1098E-4,0
FENGYUN 1C DEB,1999-025ESQ,2021-02-22T13:26:16.544544,14.00997507,.0178614,98.3559,326.6635,170.9921,189.4523,0,U,38505,999,60319,.71721E-3,.1196E-4,0
FENGYUN 1C DEB,1999-025ESR,2021-02-27T00:50:13.378848,14.03879163,.0179794,98.9971,342.5479,173.2186,187.1476,0,U,38506,999,52672,.58019E-3,.1013E-4,0
FENGYUN 1C DEB,1999-025ESV,2021-02-24T21:16:09.922944,14.08476907,.0105893,98.7584,106.6523,83.6623,277.6594,0,U,38510,999,63978,.86923E-4,.115E-5,0
FENGYUN 1C DEB,1999-025ESX,2021-02-26T00:18:19.684512,13.67762400,.0242142,98.3942,141.7010,114.6653,247.9919,0,U,38512,999,35596,.17051E-3,.143E-5,0
FENGYUN 1C DEB,1999-025ETB,2021-02-25T20:05:59.219808,14.32134053,.0112595,98.3783,74.8898,285.8683,73.0115,0,U,38516,999,59800,.28038E-4,.36E-6,0
FENGYUN 1C DEB,1999-025ETC,2021-02-26T12:06:19.980288,14.49482271,.0118812,98.5961,160.9581,82.1951,279.2711,0,U,38517,999,36310,.39865E-3,.162E-4,0
FENGYUN 1C DEB,1999-025ETE,2021-02-23T15:25:49.450944,13.77559742,.0191071,99.4532,359.5794,345.4912,14.0799,0,U,38519,999,60538,.49444E-3,.518E-5,0
FENGYUN 1C DEB,1999-025ETF,2021-02-26T22:14:58.651872,14.44778919,.0212334,97.9091,308.7582,85.3842,277.1568,0,U,38714,999,37472,.7382E-3,.3338E-4,0
FENGYUN 1C DEB,1999-025ETG,2021-02-24T10:18:52.924608,14.04513219,.0159982,98.2051,299.4072,321.7817,37.2096,0,U,38715,999,68354,.50475E-3,.864E-5,0
FENGYUN 1C DEB,1999-025ETJ,2021-02-26T16:16:29.154144,14.06605907,.0066293,99.0868,21.3540,223.5647,260.7898,0,U,38717,999,33739,.33597E-3,.522E-5,0
FENGYUN 1C DEB,1999-025ETR,2021-02-23T08:58:35.085216,13.91213712,.016174,98.7555,117.3994,266.3372,91.9280,0,U,38724,999,32104,.1083E-2,.1474E-4,0
FENGYUN 1C DEB,1999-025ETS,2021-02-27T04:06:11.488320,14.18757611,.0044464,98.8721,141.7883,287.7378,71.8947,0,U,38725,999,48410,.60007E-3,.1214E-4,0
FENGYUN 1C DEB,1999-025ETT,2021-02-26T21:37:50.716416,14.25906427,.008491,99.1800,289.7712,271.3662,87.7790,0,U,38726,999,51406,.53855E-3,.1283E-4,0
FENGYUN 1C DEB,1999-025ETU,2021-02-27T03:47:28.974336,13.94418629,.0117083,98.6971,136.1203,51.5842,339.8747,0,U,38727,999,47388,.45795E-3,.606E-5,0
FENGYUN 1C DEB,1999-025ETV,2021-02-26T14:35:11.154336,14.48181823,.0107704,99.2478,197.5012,264.8006,154.6059,0,U,38728,999,40160,.17815E-3,.655E-5,0
FENGYUN 1C DEB,1999-025ETW,2021-02-11T17:52:42.171456,14.00828149,.0089495,99.2771,32.4406,121.0355,239.9634,0,U,38729,999,58485,.6119E-3,.901E-5,0
